[
  {
    "OBJECT_NAME": "STARLINK-34653",
    "OBJECT_ID": "25157P",
    "EPOCH": "2025-11-11T00:04:31.403136",
    "MEAN_MOTION": 15.39645331,
    "ECCENTRICITY": 8.9e-05,
    "INCLINATION": 53.1568,
    "RA_OF_ASC_NODE": 182.5454,
    "ARG_OF_PERICENTER": 92.0724,
    "MEAN_ANOMALY": 268.0383,
    "EPHEMERIS_TYPE": 0,
    "CLASSIFICATION_TYPE": "U",
    "NORAD_CAT_ID": 64917,
    "ELEMENT_SET_NO": 999,
    "REV_AT_EPOCH": 1782,
    "BSTAR": 0.001479,
    "MEAN_MOTION_DOT": 0.00059268,
    "MEAN_MOTION_DDOT": 0.0,
    "TLE_LINE1": "1 64917U 25157P   25315.00314124  .00059268  00000+0  14790-2 0  9990",
    "TLE_LINE2": "2 64917  53.1568 182.5454 0000890  92.0724 268.0383 15.39645331 17825",
    "COMMENT": "Grouped by shell and plane from TLE"
  },
  {
    "OBJECT_NAME": "STARLINK-34611",
    "OBJECT_ID": "25157Q",
    "EPOCH": "2025-11-11T01:18:33.414624",
    "MEAN_MOTION": 15.39659011,
    "ECCENTRICITY": 7.23e-05,
    "INCLINATION": 53.158,
    "RA_OF_ASC_NODE": 182.8713,
    "ARG_OF_PERICENTER": 359.5547,
    "MEAN_ANOMALY": 0.5457,
    "EPHEMERIS_TYPE": 0,
    "CLASSIFICATION_TYPE": "U",
    "NORAD_CAT_ID": 64918,
    "ELEMENT_SET_NO": 999,
    "REV_AT_EPOCH": 1787,
    "BSTAR": 0.0014257,
    "MEAN_MOTION_DOT": 0.00057128,
    "MEAN_MOTION_DDOT": 0.0,
    "TLE_LINE1": "1 64918U 25157Q   25315.05455341  .00057128  00000+0  14257-2 0  9994",
    "TLE_LINE2": "2 64918  53.1580 182.8713 0000723 359.5547   0.5457 15.39659011 17876",
    "COMMENT": "Grouped by shell and plane from TLE"
  },
  {
    "OBJECT_NAME": "STARLINK-34599",
    "OBJECT_ID": "25157R",
    "EPOCH": "2025-11-11T06:25:35.969952",
    "MEAN_MOTION": 15.39629394,
    "ECCENTRICITY": 0.0001336,
    "INCLINATION": 53.1542,
    "RA_OF_ASC_NODE": 181.3463,
    "ARG_OF_PERICENTER": 118.1973,
    "MEAN_ANOMALY": 241.9167,
    "EPHEMERIS_TYPE": 0,
    "CLASSIFICATION_TYPE": "U",
    "NORAD_CAT_ID": 64919,
    "ELEMENT_SET_NO": 999,
    "REV_AT_EPOCH": 1791,
    "BSTAR": 0.0010762,
    "MEAN_MOTION_DOT": 0.00042905,
    "MEAN_MOTION_DDOT": 0.0,
    "TLE_LINE1": "1 64919U 25157R   25315.26777743  .00042905  00000+0  10762-2 0  9995",
    "TLE_LINE2": "2 64919  53.1542 181.3463 0001336 118.1973 241.9167 15.39629394 17919",
    "COMMENT": "Grouped by shell and plane from TLE"
  },
  {
    "OBJECT_NAME": "STARLINK-34069",
    "OBJECT_ID": "25157S",
    "EPOCH": "2025-11-11T01:11:52.489248",
    "MEAN_MOTION": 15.39629717,
    "ECCENTRICITY": 0.0001194,
    "INCLINATION": 53.1587,
    "RA_OF_ASC_NODE": 182.8411,
    "ARG_OF_PERICENTER": 54.5404,
    "MEAN_ANOMALY": 305.5712,
    "EPHEMERIS_TYPE": 0,
    "CLASSIFICATION_TYPE": "U",
    "NORAD_CAT_ID": 64920,
    "ELEMENT_SET_NO": 999,
    "REV_AT_EPOCH": 1787,
    "BSTAR": 0.0012439,
    "MEAN_MOTION_DOT": 0.00049694,
    "MEAN_MOTION_DDOT": 0.0,
    "TLE_LINE1": "1 64920U 25157S   25315.04991307  .00049694  00000+0  12439-2 0  9992",
    "TLE_LINE2": "2 64920  53.1587 182.8411 0001194  54.5404 305.5712 15.39629717 17870",
    "COMMENT": "Grouped by shell and plane from TLE"
  },
  {
    "OBJECT_NAME": "STARLINK-34699",
    "OBJECT_ID": "25157T",
    "EPOCH": "2025-11-11T01:05:11.259744",
    "MEAN_MOTION": 15.39638476,
    "ECCENTRICITY": 0.0001061,
    "INCLINATION": 53.16,
    "RA_OF_ASC_NODE": 182.811,
    "ARG_OF_PERICENTER": 56.4512,
    "MEAN_ANOMALY": 303.6594,
    "EPHEMERIS_TYPE": 0,
    "CLASSIFICATION_TYPE": "U",
    "NORAD_CAT_ID": 64921,
    "ELEMENT_SET_NO": 999,
    "REV_AT_EPOCH": 1787,
    "BSTAR": 0.0012141,
    "MEAN_MOTION_DOT": 0.00048502,
    "MEAN_MOTION_DDOT": 0.0,
    "TLE_LINE1": "1 64921U 25157T   25315.04526921  .00048502  00000+0  12141-2 0  9996",
    "TLE_LINE2": "2 64921  53.1600 182.8110 0001061  56.4512 303.6594 15.39638476 17876",
    "COMMENT": "Grouped by shell and plane from TLE"
  },
  {
    "OBJECT_NAME": "STARLINK-34700",
    "OBJECT_ID": "25157U",
    "EPOCH": "2025-11-11T00:51:48.659040",
    "MEAN_MOTION": 15.39653774,
    "ECCENTRICITY": 5.03e-05,
    "INCLINATION": 53.1589,
    "RA_OF_ASC_NODE": 182.7507,
    "ARG_OF_PERICENTER": 26.5919,
    "MEAN_ANOMALY": 333.5112,
    "EPHEMERIS_TYPE": 0,
    "CLASSIFICATION_TYPE": "U",
    "NORAD_CAT_ID": 64922,
    "ELEMENT_SET_NO": 999,
    "REV_AT_EPOCH": 1782,
    "BSTAR": 0.0013733999999999999,
    "MEAN_MOTION_DOT": 0.00054994,
    "MEAN_MOTION_DDOT": 0.0,
    "TLE_LINE1": "1 64922U 25157U   25315.03597985  .00054994  00000+0  13734-2 0  9995",
    "TLE_LINE2": "2 64922  53.1589 182.7507 0000503  26.5919 333.5112 15.39653774 17822",
    "COMMENT": "Grouped by shell and plane from TLE"
  },
  {
    "OBJECT_NAME": "STARLINK-34643",
    "OBJECT_ID": "25157V",
    "EPOCH": "2025-11-11T00:38:26.667456",
    "MEAN_MOTION": 15.39640361,
    "ECCENTRICITY": 0.00015,
    "INCLINATION": 53.1581,
    "RA_OF_ASC_NODE": 182.6913,
    "ARG_OF_PERICENTER": 66.4717,
    "MEAN_ANOMALY": 293.6445,
    "EPHEMERIS_TYPE": 0,
    "CLASSIFICATION_TYPE": "U",
    "NORAD_CAT_ID": 64923,
    "ELEMENT_SET_NO": 999,
    "REV_AT_EPOCH": 1787,
    "BSTAR": 0.0015162,
    "MEAN_MOTION_DOT": 0.00060774,
    "MEAN_MOTION_DDOT": 0.0,
    "TLE_LINE1": "1 64923U 25157V   25315.02669754  .00060774  00000+0  15162-2 0  9999",
    "TLE_LINE2": "2 64923  53.1581 182.6913 0001500  66.4717 293.6445 15.39640361 17870",
    "COMMENT": "Grouped by shell and plane from TLE"
  },
  {
    "OBJECT_NAME": "STARLINK-34199",
    "OBJECT_ID": "25157W",
    "EPOCH": "2025-11-11T00:45:09.300096",
    "MEAN_MOTION": 15.39684948,
    "ECCENTRICITY": 8.98e-05,
    "INCLINATION": 53.1571,
    "RA_OF_ASC_NODE": 182.7205,
    "ARG_OF_PERICENTER": 149.5518,
    "MEAN_ANOMALY": 210.5539,
    "EPHEMERIS_TYPE": 0,
    "CLASSIFICATION_TYPE": "U",
    "NORAD_CAT_ID": 64924,
    "ELEMENT_SET_NO": 999,
    "REV_AT_EPOCH": 1782,
    "BSTAR": 0.0021768,
    "MEAN_MOTION_DOT": 0.00087866,
    "MEAN_MOTION_DDOT": 0.0,
    "TLE_LINE1": "1 64924U 25157W   25315.03135764  .00087866  00000+0  21768-2 0  9990",
    "TLE_LINE2": "2 64924  53.1571 182.7205 0000898 149.5518 210.5539 15.39684948 17822",
    "COMMENT": "Grouped by shell and plane from TLE"
  },
  {
    "OBJECT_NAME": "STARLINK-34579",
    "OBJECT_ID": "25157X",
    "EPOCH": "2025-11-11T00:58:30.242784",
    "MEAN_MOTION": 15.3965135,
    "ECCENTRICITY": 0.000143,
    "INCLINATION": 53.1592,
    "RA_OF_ASC_NODE": 182.7794,
    "ARG_OF_PERICENTER": 56.9713,
    "MEAN_ANOMALY": 303.1429,
    "EPHEMERIS_TYPE": 0,
    "CLASSIFICATION_TYPE": "U",
    "NORAD_CAT_ID": 64925,
    "ELEMENT_SET_NO": 999,
    "REV_AT_EPOCH": 1787,
    "BSTAR": 0.0018555,
    "MEAN_MOTION_DOT": 0.00074626,
    "MEAN_MOTION_DDOT": 0.0,
    "TLE_LINE1": "1 64925U 25157X   25315.04062781  .00074626  00000+0  18555-2 0  9990",
    "TLE_LINE2": "2 64925  53.1592 182.7794 0001430  56.9713 303.1429 15.39651350 17873",
    "COMMENT": "Grouped by shell and plane from TLE"
  },
  {
    "OBJECT_NAME": "STARLINK-34543",
    "OBJECT_ID": "25157Y",
    "EPOCH": "2025-11-11T08:00:03.000384",
    "MEAN_MOTION": 15.39587311,
    "ECCENTRICITY": 0.0001237,
    "INCLINATION": 53.1571,
    "RA_OF_ASC_NODE": 180.9904,
    "ARG_OF_PERICENTER": 94.7325,
    "MEAN_ANOMALY": 294.8919,
    "EPHEMERIS_TYPE": 0,
    "CLASSIFICATION_TYPE": "U",
    "NORAD_CAT_ID": 64926,
    "ELEMENT_SET_NO": 999,
    "REV_AT_EPOCH": 561,
    "BSTAR": 0.00046844000000000003,
    "MEAN_MOTION_DOT": 0.00018363,
    "MEAN_MOTION_DDOT": 0.0,
    "TLE_LINE1": "1 64926U 25157Y   25315.33336806  .00018363  00000+0  46844-3 0  9994",
    "TLE_LINE2": "2 64926  53.1571 180.9904 0001237  94.7325 294.8919 15.39587311  5612",
    "COMMENT": "Grouped by shell and plane from TLE"
  },
  {
    "OBJECT_NAME": "STARLINK-34661",
    "OBJECT_ID": "25157Z",
    "EPOCH": "2025-11-11T04:38:44.786688",
    "MEAN_MOTION": 15.39649843,
    "ECCENTRICITY": 9.33e-05,
    "INCLINATION": 53.1572,
    "RA_OF_ASC_NODE": 181.5902,
    "ARG_OF_PERICENTER": 113.4599,
    "MEAN_ANOMALY": 246.6504,
    "EPHEMERIS_TYPE": 0,
    "CLASSIFICATION_TYPE": "U",
    "NORAD_CAT_ID": 64927,
    "ELEMENT_SET_NO": 999,
    "REV_AT_EPOCH": 1763,
    "BSTAR": 0.0021612000000000003,
    "MEAN_MOTION_DOT": 0.00087124,
    "MEAN_MOTION_DDOT": 0.0,
    "TLE_LINE1": "1 64927U 25157Z   25315.19357392  .00087124  00000+0  21612-2 0  9998",
    "TLE_LINE2": "2 64927  53.1572 181.5902 0000933 113.4599 246.6504 15.39649843 17632",
    "COMMENT": "Grouped by shell and plane from TLE"
  },
  {
    "OBJECT_NAME": "STARLINK-34248",
    "OBJECT_ID": "25157AA",
    "EPOCH": "2025-11-11T05:12:11.007648",
    "MEAN_MOTION": 15.39640313,
    "ECCENTRICITY": 9.4e-05,
    "INCLINATION": 53.1573,
    "RA_OF_ASC_NODE": 181.7436,
    "ARG_OF_PERICENTER": 113.7777,
    "MEAN_ANOMALY": 246.3326,
    "EPHEMERIS_TYPE": 0,
    "CLASSIFICATION_TYPE": "U",
    "NORAD_CAT_ID": 64928,
    "ELEMENT_SET_NO": 999,
    "REV_AT_EPOCH": 1790,
    "BSTAR": 0.0018531,
    "MEAN_MOTION_DOT": 0.00074499,
    "MEAN_MOTION_DDOT": 0.0,
    "TLE_LINE1": "1 64928U 25157AA  25315.21679407  .00074499  00000+0  18531-2 0  9993",
    "TLE_LINE2": "2 64928  53.1573 181.7436 0000940 113.7777 246.3326 15.39640313 17909",
    "COMMENT": "Grouped by shell and plane from TLE"
  },
  {
    "OBJECT_NAME": "STARLINK-34290",
    "OBJECT_ID": "25157AB",
    "EPOCH": "2025-11-11T00:25:04.046016",
    "MEAN_MOTION": 15.39647982,
    "ECCENTRICITY": 0.0001149,
    "INCLINATION": 53.1581,
    "RA_OF_ASC_NODE": 182.6317,
    "ARG_OF_PERICENTER": 66.3278,
    "MEAN_ANOMALY": 293.7847,
    "EPHEMERIS_TYPE": 0,
    "CLASSIFICATION_TYPE": "U",
    "NORAD_CAT_ID": 64929,
    "ELEMENT_SET_NO": 999,
    "REV_AT_EPOCH": 1787,
    "BSTAR": 0.0006983100000000001,
    "MEAN_MOTION_DOT": 0.00027659,
    "MEAN_MOTION_DDOT": 0.0,
    "TLE_LINE1": "1 64929U 25157AB  25315.01740794  .00027659  00000+0  69831-3 0  9996",
    "TLE_LINE2": "2 64929  53.1581 182.6317 0001149  66.3278 293.7847 15.39647982 17877",
    "COMMENT": "Grouped by shell and plane from TLE"
  }
]